CCSDS_OMM_VERS = 2.0
CREATION_DATE  = 
ORIGINATOR     = 

OBJECT_NAME    = 2025-313AE
OBJECT_ID      = 2025-313AE
CENTER_NAME    = EARTH
REF_FRAME      = TEME
TIME_SYSTEM    = UTC
MEAN_ELEMENT_THEORY = SGP/SGP4

EPOCH          = 2026-01-18T22:31:47.915328
MEAN_MOTION    = 15.20275492
ECCENTRICITY   = .00148158
INCLINATION    = 97.4083
RA_OF_ASC_NODE = 96.0329
ARG_OF_PERICENTER = 165.5934
MEAN_ANOMALY   = 194.5726

EPHEMERIS_TYPE = 0
CLASSIFICATION_TYPE = U
NORAD_CAT_ID   = 67276
ELEMENT_SET_NO = 999
REV_AT_EPOCH   = 325
BSTAR          = .33999329E-3
MEAN_MOTION_DOT = .7336E-4
MEAN_MOTION_DDOT = 0

CCSDS_OMM_VERS = 2.0
CREATION_DATE  = 
ORIGINATOR     = 

OBJECT_NAME    = 2025-313AF
OBJECT_ID      = 2025-313AF
CENTER_NAME    = EARTH
REF_FRAME      = TEME
TIME_SYSTEM    = UTC
MEAN_ELEMENT_THEORY = SGP/SGP4

EPOCH          = 2026-01-18T22:32:14.657856
MEAN_MOTION    = 15.20236985
ECCENTRICITY   = .00148113
INCLINATION    = 97.4085
RA_OF_ASC_NODE = 96.0333
ARG_OF_PERICENTER = 165.5679
MEAN_ANOMALY   = 194.5982

EPHEMERIS_TYPE = 0
CLASSIFICATION_TYPE = U
NORAD_CAT_ID   = 67277
ELEMENT_SET_NO = 999
REV_AT_EPOCH   = 325
BSTAR          = .31338601E-3
MEAN_MOTION_DOT = .6748E-4
MEAN_MOTION_DDOT = 0

CCSDS_OMM_VERS = 2.0
CREATION_DATE  = 
ORIGINATOR     = 

OBJECT_NAME    = 2025-313AG
OBJECT_ID      = 2025-313AG
CENTER_NAME    = EARTH
REF_FRAME      = TEME
TIME_SYSTEM    = UTC
MEAN_ELEMENT_THEORY = SGP/SGP4

EPOCH          = 2026-01-18T22:31:56.804160
MEAN_MOTION    = 15.20254892
ECCENTRICITY   = .00147701
INCLINATION    = 97.4088
RA_OF_ASC_NODE = 96.0343
ARG_OF_PERICENTER = 165.2993
MEAN_ANOMALY   = 194.8675

EPHEMERIS_TYPE = 0
CLASSIFICATION_TYPE = U
NORAD_CAT_ID   = 67278
ELEMENT_SET_NO = 999
REV_AT_EPOCH   = 326
BSTAR          = .31356719E-3
MEAN_MOTION_DOT = .6756E-4
MEAN_MOTION_DDOT = 0

CCSDS_OMM_VERS = 2.0
CREATION_DATE  = 
ORIGINATOR     = 

OBJECT_NAME    = GALAPAGOS-UTE-SWSU
OBJECT_ID      = 2025-313AH
CENTER_NAME    = EARTH
REF_FRAME      = TEME
TIME_SYSTEM    = UTC
MEAN_ELEMENT_THEORY = SGP/SGP4

EPOCH          = 2026-01-18T22:30:47.246112
MEAN_MOTION    = 15.20337062
ECCENTRICITY   = .00153222
INCLINATION    = 97.4099
RA_OF_ASC_NODE = 96.0383
ARG_OF_PERICENTER = 162.4320
MEAN_ANOMALY   = 197.7448

EPHEMERIS_TYPE = 0
CLASSIFICATION_TYPE = U
NORAD_CAT_ID   = 67279
ELEMENT_SET_NO = 999
REV_AT_EPOCH   = 325
BSTAR          = .36275531E-3
MEAN_MOTION_DOT = .7848E-4
MEAN_MOTION_DDOT = 0

CCSDS_OMM_VERS = 2.0
CREATION_DATE  = 
ORIGINATOR     = 

OBJECT_NAME    = 2025-313AJ
OBJECT_ID      = 2025-313AJ
CENTER_NAME    = EARTH
REF_FRAME      = TEME
TIME_SYSTEM    = UTC
MEAN_ELEMENT_THEORY = SGP/SGP4

EPOCH          = 2026-01-18T22:24:07.221888
MEAN_MOTION    = 15.20616534
ECCENTRICITY   = .00142535
INCLINATION    = 97.4169
RA_OF_ASC_NODE = 96.0514
ARG_OF_PERICENTER = 159.2203
MEAN_ANOMALY   = 200.9615

EPHEMERIS_TYPE = 0
CLASSIFICATION_TYPE = U
NORAD_CAT_ID   = 67280
ELEMENT_SET_NO = 999
REV_AT_EPOCH   = 325
BSTAR          = .25734398E-3
MEAN_MOTION_DOT = .5589E-4
MEAN_MOTION_DDOT = 0

CCSDS_OMM_VERS = 2.0
CREATION_DATE  = 
ORIGINATOR     = 

OBJECT_NAME    = 2025-313AK
OBJECT_ID      = 2025-313AK
CENTER_NAME    = EARTH
REF_FRAME      = TEME
TIME_SYSTEM    = UTC
MEAN_ELEMENT_THEORY = SGP/SGP4

EPOCH          = 2026-01-18T22:22:17.149152
MEAN_MOTION    = 15.20708678
ECCENTRICITY   = .00129766
INCLINATION    = 97.4052
RA_OF_ASC_NODE = 96.0313
ARG_OF_PERICENTER = 158.0625
MEAN_ANOMALY   = 202.1169

EPHEMERIS_TYPE = 0
CLASSIFICATION_TYPE = U
NORAD_CAT_ID   = 67281
ELEMENT_SET_NO = 999
REV_AT_EPOCH   = 325
BSTAR          = .25940566E-3
MEAN_MOTION_DOT = .5647E-4
MEAN_MOTION_DDOT = 0

CCSDS_OMM_VERS = 2.0
CREATION_DATE  = 
ORIGINATOR     = 

OBJECT_NAME    = 2025-313AL
OBJECT_ID      = 2025-313AL
CENTER_NAME    = EARTH
REF_FRAME      = TEME
TIME_SYSTEM    = UTC
MEAN_ELEMENT_THEORY = SGP/SGP4

EPOCH          = 2026-01-18T22:14:51.913536
MEAN_MOTION    = 15.21088874
ECCENTRICITY   = .00117429
INCLINATION    = 97.4102
RA_OF_ASC_NODE = 96.0399
ARG_OF_PERICENTER = 157.0493
MEAN_ANOMALY   = 203.1270

EPHEMERIS_TYPE = 0
CLASSIFICATION_TYPE = U
NORAD_CAT_ID   = 67282
ELEMENT_SET_NO = 999
REV_AT_EPOCH   = 325
BSTAR          = .26731049E-3
MEAN_MOTION_DOT = .5885E-4
MEAN_MOTION_DDOT = 0

CCSDS_OMM_VERS = 2.0
CREATION_DATE  = 
ORIGINATOR     = 

OBJECT_NAME    = HORS 5
OBJECT_ID      = 2025-313AM
CENTER_NAME    = EARTH
REF_FRAME      = TEME
TIME_SYSTEM    = UTC
MEAN_ELEMENT_THEORY = SGP/SGP4

EPOCH          = 2026-01-18T22:13:11.193600
MEAN_MOTION    = 15.21240417
ECCENTRICITY   = .00116247
INCLINATION    = 97.4109
RA_OF_ASC_NODE = 96.0440
ARG_OF_PERICENTER = 156.9080
MEAN_ANOMALY   = 203.2680

EPHEMERIS_TYPE = 0
CLASSIFICATION_TYPE = U
NORAD_CAT_ID   = 67283
ELEMENT_SET_NO = 999
REV_AT_EPOCH   = 325
BSTAR          = .38899952E-3
MEAN_MOTION_DOT = .8636E-4
MEAN_MOTION_DDOT = 0

CCSDS_OMM_VERS = 2.0
CREATION_DATE  = 
ORIGINATOR     = 

OBJECT_NAME    = LOBACHEVSKY (RS83S)
OBJECT_ID      = 2025-313AN
CENTER_NAME    = EARTH
REF_FRAME      = TEME
TIME_SYSTEM    = UTC
MEAN_ELEMENT_THEORY = SGP/SGP4

EPOCH          = 2026-01-18T22:15:14.574528
MEAN_MOTION    = 15.21021673
ECCENTRICITY   = .00116351
INCLINATION    = 97.4093
RA_OF_ASC_NODE = 96.0373
ARG_OF_PERICENTER = 156.9212
MEAN_ANOMALY   = 203.2548

EPHEMERIS_TYPE = 0
CLASSIFICATION_TYPE = U
NORAD_CAT_ID   = 67284
ELEMENT_SET_NO = 999
REV_AT_EPOCH   = 325
BSTAR          = .16991236E-3
MEAN_MOTION_DOT = .3707E-4
MEAN_MOTION_DDOT = 0

CCSDS_OMM_VERS = 2.0
CREATION_DATE  = 
ORIGINATOR     = 

OBJECT_NAME    = NASBSAT-2
OBJECT_ID      = 2025-313AP
CENTER_NAME    = EARTH
REF_FRAME      = TEME
TIME_SYSTEM    = UTC
MEAN_ELEMENT_THEORY = SGP/SGP4

EPOCH          = 2026-01-18T22:11:49.446240
MEAN_MOTION    = 15.21296503
ECCENTRICITY   = .00112446
INCLINATION    = 97.4086
RA_OF_ASC_NODE = 96.0380
ARG_OF_PERICENTER = 158.2480
MEAN_ANOMALY   = 201.9236

EPHEMERIS_TYPE = 0
CLASSIFICATION_TYPE = U
NORAD_CAT_ID   = 67285
ELEMENT_SET_NO = 999
REV_AT_EPOCH   = 325
BSTAR          = .37133577E-3
MEAN_MOTION_DOT = .8253E-4
MEAN_MOTION_DDOT = 0

CCSDS_OMM_VERS = 2.0
CREATION_DATE  = 
ORIGINATOR     = 

OBJECT_NAME    = 2025-313AQ
OBJECT_ID      = 2025-313AQ
CENTER_NAME    = EARTH
REF_FRAME      = TEME
TIME_SYSTEM    = UTC
MEAN_ELEMENT_THEORY = SGP/SGP4

EPOCH          = 2026-01-18T22:11:01.981536
MEAN_MOTION    = 15.21288033
ECCENTRICITY   = .00109402
INCLINATION    = 97.4108
RA_OF_ASC_NODE = 96.0534
ARG_OF_PERICENTER = 153.2795
MEAN_ANOMALY   = 206.9007

EPHEMERIS_TYPE = 0
CLASSIFICATION_TYPE = U
NORAD_CAT_ID   = 67286
ELEMENT_SET_NO = 999
REV_AT_EPOCH   = 325
BSTAR          = .41106287E-3
MEAN_MOTION_DOT = .9141E-4
MEAN_MOTION_DDOT = 0

CCSDS_OMM_VERS = 2.0
CREATION_DATE  = 
ORIGINATOR     = 

OBJECT_NAME    = LUCA (RS90S)
OBJECT_ID      = 2025-313AR
CENTER_NAME    = EARTH
REF_FRAME      = TEME
TIME_SYSTEM    = UTC
MEAN_ELEMENT_THEORY = SGP/SGP4

EPOCH          = 2026-01-18T22:09:43.704864
MEAN_MOTION    = 15.21422840
ECCENTRICITY   = .00108484
INCLINATION    = 97.4108
RA_OF_ASC_NODE = 96.0551
ARG_OF_PERICENTER = 155.0572
MEAN_ANOMALY   = 205.1190

EPHEMERIS_TYPE = 0
CLASSIFICATION_TYPE = U
NORAD_CAT_ID   = 67287
ELEMENT_SET_NO = 999
REV_AT_EPOCH   = 325
BSTAR          = .40939603E-3
MEAN_MOTION_DOT = .914E-4
MEAN_MOTION_DDOT = 0

