2025-313AE              
1 67276U 25313AE  26018.93874902  .00007336  00000+0  33999-3 0  9995
2 67276  97.4083  96.0329 0014815 165.5934 194.5726 15.20275492  3253
2025-313AF              
1 67277U 25313AF  26018.93905854  .00006748  00000+0  31339-3 0  9999
2 67277  97.4085  96.0333 0014811 165.5679 194.5982 15.20236985  3251
2025-313AG              
1 67278U 25313AG  26018.93885190  .00006756  00000+0  31357-3 0  9999
2 67278  97.4088  96.0343 0014770 165.2993 194.8675 15.20254892  3266
GALAPAGOS-UTE-SWSU      
1 67279U 25313AH  26018.93804683  .00007848  00000+0  36276-3 0  9996
2 67279  97.4099  96.0383 0015322 162.4320 197.7448 15.20337062  3250
2025-313AJ              
1 67280U 25313AJ  26018.93341692  .00005589  00000+0  25734-3 0  9991
2 67280  97.4169  96.0514 0014253 159.2203 200.9615 15.20616534  3259
2025-313AK              
1 67281U 25313AK  26018.93214293  .00005647  00000+0  25941-3 0  9993
2 67281  97.4052  96.0313 0012976 158.0625 202.1169 15.20708678  3252
2025-313AL              
1 67282U 25313AL  26018.92698974  .00005885  00000+0  26731-3 0  9997
2 67282  97.4102  96.0399 0011742 157.0493 203.1270 15.21088874  3259
HORS 5                  
1 67283U 25313AM  26018.92582400  .00008636  00000+0  38900-3 0  9992
2 67283  97.4109  96.0440 0011624 156.9080 203.2680 15.21240417  3252
LOBACHEVSKY (RS83S)     
1 67284U 25313AN  26018.92725202  .00003707  00000+0  16991-3 0  9992
2 67284  97.4093  96.0373 0011635 156.9212 203.2548 15.21021673  3253
NASBSAT-2               
1 67285U 25313AP  26018.92487785  .00008253  00000+0  37134-3 0  9997
2 67285  97.4086  96.0380 0011244 158.2480 201.9236 15.21296503  3257
2025-313AQ              
1 67286U 25313AQ  26018.92432849  .00009141  00000+0  41106-3 0  9990
2 67286  97.4108  96.0534 0010940 153.2795 206.9007 15.21288033  3250
LUCA (RS90S)            
1 67287U 25313AR  26018.92342251  .00009140  00000+0  40940-3 0  9992
2 67287  97.4108  96.0551 0010848 155.0572 205.1190 15.21422840  3250
